1 42871U 17042AY  21326.80718104  .00011611  00000-0  21094-3 0  9998
2 42871  96.8306 171.6699 0006869 192.1905 167.9183 15.49669827244890
1 42871U 17042AY  21326.87175372  .00011342  00000-0  20608-3 0  9990
2 42871  96.8306 171.7311 0006879 191.8924 168.2167 15.49671304244901
1 42871U 17042AY  21327.51747868  .00009567  00000-0  17401-3 0  9990
2 42871  96.8306 172.3431 0006939 189.2825 170.8300 15.49684286245002
1 42871U 17042AY  21328.03405496  .00010126  00000-0  18401-3 0  9990
2 42871  96.8305 172.8328 0007004 187.3045 172.8107 15.49694828245086
1 42871U 17042AY  21328.87348309  .00009937  00000-0  18050-3 0  9999
2 42871  96.8307 173.6284 0007092 183.6745 176.4457 15.49712163245217
1 42871U 17042AY  21329.32547908  .00009363  00000-0  17010-3 0  9994
2 42871  96.8307 174.0568 0007154 181.7939 178.3289 15.49721298245280
1 42871U 17042AY  21329.51919066  .00009828  00000-0  17843-3 0  9993
2 42871  96.8307 174.2403 0007171 181.1170 179.0068 15.49726383245317
1 42871U 17042AY  21330.35860155  .00011474  00000-0  20789-3 0  9994
2 42871  96.8308 175.0359 0007269 178.0657 182.0625 15.49746146245446
1 42871U 17042AY  21330.87515652  .00011512  00000-0  20847-3 0  9998
2 42871  96.8307 175.5255 0007309 175.7114 184.4202 15.49758626245524
1 42871U 17042AY  21331.52084510  .00010911  00000-0  19757-3 0  9995
2 42871  96.8308 176.1374 0007385 173.2641 186.8712 15.49773138245624
1 42871U 17042AY  21331.84368736  .00011819  00000-0  21381-3 0  9999
2 42871  96.8307 176.4434 0007411 172.1409 187.9961 15.49780244245672
1 42871U 17042AY  21332.29566284  .00014442  00000-0  26073-3 0  9995
2 42871  96.8308 176.8718 0007456 170.5545 189.5849 15.49794376245746
1 42871U 17042AY  21332.87676892  .00013336  00000-0  24077-3 0  9999
2 42871  96.8307 177.4226 0007516 168.2495 191.8935 15.49808965245833
1 42871U 17042AY  21333.00590278  .00013099  00000-0  23649-3 0  9998
2 42871  96.8307 177.5450 0007528 167.7515 192.3922 15.49812757245851
1 42871U 17042AY  21333.32873422  .00019342  00000-0  34800-3 0  9996
2 42871  96.8307 177.8509 0007554 166.5163 193.6293 15.49831739245906
1 42871U 17042AY  21333.84526123  .00015379  00000-0  27702-3 0  9995
2 42871  96.8306 178.3404 0007566 164.7147 195.4335 15.49844716245984
1 42871U 17042AY  21334.29721832  .00013703  00000-0  24692-3 0  9993
2 42871  96.8305 178.7688 0007613 163.2193 196.9314 15.49856844246056
1 42871U 17042AY  21334.87830123  .00012127  00000-0  21863-3 0  9997
2 42871  96.8303 179.3195 0007663 161.0505 199.1034 15.49870206246144
1 42871U 17042AY  21335.33025059  .00017282  00000-0  31055-3 0  9994
2 42871  96.8302 179.7479 0007707 159.4622 200.6942 15.49887868246218
1 42871U 17042AY  21335.52394215  .00014907  00000-0  26813-3 0  9995
2 42871  96.8302 179.9314 0007726 158.7913 201.3661 15.49890757246244
1 42871U 17042AY  21335.84675958  .00015720  00000-0  28255-3 0  9992
2 42871  96.8300 180.2374 0007743 157.7886 202.3704 15.49900187246293
1 42871U 17042AY  21336.49238824  .00015232  00000-0  27364-3 0  9999
2 42871  96.8298 180.8494 0007794 155.5962 204.5662 15.49919542246398
1 42871U 17042AY  21336.55695059  .00013916  00000-0  25016-3 0  9992
2 42871  96.8298 180.9105 0007801 155.3767 204.7860 15.49920243246402
1 42871U 17042AY  21336.81519944  .00013591  00000-0  24431-3 0  9998
2 42871  96.8299 181.1553 0007796 154.4547 205.7092 15.49927244246442
1 42871U 17042AY  21337.52537835  .00011079  00000-0  19936-3 0  9999
2 42871  96.8294 181.8285 0007884 151.9173 208.2506 15.49944480246552
1 42871U 17042AY  21337.84818416  .00013406  00000-0  24076-3 0  9998
2 42871  96.8293 182.1345 0007908 150.8949 209.2746 15.49954699246604
1 42871U 17042AY  21338.10642767  .00013750  00000-0  24683-3 0  9998
2 42871  96.8292 182.3794 0007924 150.1159 210.0548 15.49961723246647
1 42871U 17042AY  21338.81659150  .00012388  00000-0  22243-3 0  9996
2 42871  96.8290 183.0526 0007982 147.6183 212.5561 15.49978096246753
1 42871U 17042AY  21338.88115148  .00010428  00000-0  18752-3 0  9990
2 42871  96.8290 183.1138 0007990 147.3985 212.7762 15.49977594246767
1 42871U 17042AY  21339.52674799  .00010115  00000-0  18184-3 0  9996
2 42871  96.8290 183.7258 0008044 145.2931 214.8848 15.49992974246863
1 42871U 17042AY  21339.84954409  .00010696  00000-0  19215-3 0  9990
2 42871  96.8289 184.0318 0008061 144.2989 215.8804 15.49999986246912
1 42871U 17042AY  21340.49513194  .00009487  00000-0  17053-3 0  9999
2 42871  96.8290 184.6439 0008092 142.2259 217.9563 15.50012795247019
1 42871U 17042AY  21340.81792372  .00009473  00000-0  17024-3 0  9995
2 42871  96.8290 184.9499 0008118 141.1149 219.0689 15.50019322247063
1 42871U 17042AY  21341.14071425  .00009877  00000-0  17739-3 0  9992
2 42871  96.8291 185.2559 0008147 140.1215 220.0638 15.50026868247115
1 42871U 17042AY  21341.46350335  .00009868  00000-0  17718-3 0  9994
2 42871  96.8291 185.5619 0008159 139.0623 221.1244 15.50033506247165
1 42871U 17042AY  21341.85084881  .00008759  00000-0  15742-3 0  9990
2 42871  96.8292 185.9291 0008181 137.9681 222.2201 15.50039072247228
1 42871U 17042AY  21342.49642004  .00009204  00000-0  16526-3 0  9995
2 42871  96.8293 186.5412 0008205 135.9784 224.2123 15.50052386247329
1 42871U 17042AY  21342.56097680  .00009554  00000-0  17148-3 0  9996
2 42871  96.8293 186.6024 0008209 135.7760 224.4151 15.50054309247336
1 42871U 17042AY  21342.88376057  .00008557  00000-0  15373-3 0  9999
2 42871  96.8295 186.9084 0008237 134.7766 225.4158 15.50058616247381
1 42871U 17042AY  21343.85210513  .00007526  00000-0  13533-3 0  9992
2 42871  96.8296 187.8264 0008299 131.7726 228.4237 15.50073843247530
1 42871U 17042AY  21344.30399621  .00007528  00000-0  13532-3 0  9992
2 42871  96.8297 188.2548 0008311 130.3251 229.8729 15.50080518247600
1 42871U 17042AY  21344.82044070  .00008495  00000-0  15245-3 0  9991
2 42871  96.8298 188.7444 0008340 128.7785 231.4214 15.50089728247684
1 42871U 17042AY  21344.88499592  .00007575  00000-0  13611-3 0  9993
2 42871  96.8298 188.8056 0008347 128.5640 231.6362 15.50089580247692
1 42871U 17042AY  21345.53054759  .00007987  00000-0  14337-3 0  9991
2 42871  96.8297 189.4175 0008385 126.5738 233.6287 15.50099985247797
1 42871U 17042AY  21345.85332183  .00008237  00000-0  14779-3 0  9995
2 42871  96.8298 189.7235 0008409 125.5962 234.6075 15.50105095247845
1 42871U 17042AY  21346.49886719  .00007711  00000-0  13840-3 0  9999
2 42871  96.8298 190.3354 0008434 123.6538 236.5520 15.50113949247945
1 42871U 17042AY  21346.82163835  .00007969  00000-0  14295-3 0  9993
2 42871  96.8298 190.6414 0008456 122.6952 237.5117 15.50119144247999
1 42871U 17042AY  21347.14440800  .00007275  00000-0  13063-3 0  9991
2 42871  96.8298 190.9474 0008472 121.7093 238.4987 15.50123860248044
1 42871U 17042AY  21347.53173036  .00009029  00000-0  16167-3 0  9995
2 42871  96.8297 191.3146 0008489 120.4858 239.7235 15.50132920248101
1 42871U 17042AY  21347.85449801  .00007570  00000-0  13580-3 0  9991
2 42871  96.8298 191.6206 0008509 119.5862 240.6240 15.50135693248151
1 42871U 17042AY  21348.50003007  .00007800  00000-0  13982-3 0  9990
2 42871  96.8297 192.2326 0008520 117.6265 242.5854 15.50145979248250
1 42871U 17042AY  21348.56458284  .00008404  00000-0  15052-3 0  9998
2 42871  96.8297 192.2938 0008523 117.4255 242.7865 15.50148180248261
1 42871U 17042AY  21348.88734666  .00008221  00000-0  14724-3 0  9996
2 42871  96.8297 192.5998 0008548 116.5131 243.6999 15.50153332248319
1 42871U 17042AY  21349.46831878  .00008623  00000-0  15431-3 0  9996
2 42871  96.8295 193.1505 0008559 114.7583 245.4562 15.50163952248406
1 42871U 17042AY  21349.85563006  .00011569  00000-0  20637-3 0  9991
2 42871  96.8294 193.5178 0008575 113.6222 246.5932 15.50176557248465
1 42871U 17042AY  21350.11383663  .00011747  00000-0  20946-3 0  9992
2 42871  96.8294 193.7625 0008578 112.8117 247.4042 15.50182406248508
1 42871U 17042AY  21350.56569540  .00012516  00000-0  22298-3 0  9998
2 42871  96.8293 194.1909 0008589 111.4634 248.7536 15.50193804248571
1 42871U 17042AY  21350.82389892  .00012431  00000-0  22143-3 0  9992
2 42871  96.8292 194.4357 0008596 110.6233 249.5942 15.50199908248610
1 42871U 17042AY  21351.46940064  .00014939  00000-0  26550-3 0  9998
2 42871  96.8291 195.0477 0008631 108.6995 251.5195 15.50222807248710
1 42871U 17042AY  21351.79214847  .00014403  00000-0  25596-3 0  9992
2 42871  96.8290 195.3538 0008652 107.7186 252.5012 15.50231704248765
1 42871U 17042AY  21352.56673503  .00014873  00000-0  26402-3 0  9994
2 42871  96.8287 196.0882 0008666 105.5152 254.7058 15.50256291248880
1 42871U 17042AY  21352.82492829  .00015255  00000-0  27068-3 0  9997
2 42871  96.8286 196.3330 0008671 104.6804 255.5411 15.50263347248927
1 42871U 17042AY  21353.53495058  .00018464  00000-0  32686-3 0  9990
2 42871  96.8284 197.0062 0008669 102.5820 257.6403 15.50291407249032
1 42871U 17042AY  21353.79313758  .00019233  00000-0  34027-3 0  9990
2 42871  96.8283 197.2511 0008690 101.6708 258.5521 15.50301060249073
1 42871U 17042AY  21354.11586756  .00025692  00000-0  45334-3 0  9996
2 42871  96.8284 197.5573 0008690 100.7511 259.4721 15.50322814249125
1 42871U 17042AY  21354.56768416  .00024987  00000-0  44065-3 0  9996
2 42871  96.8283 197.9858 0008702  99.4902 260.7335 15.50343788249192
1 42871U 17042AY  21354.82586225  .00023941  00000-0  42215-3 0  9995
2 42871  96.8283 198.2306 0008694  98.8889 261.3348 15.50355677249237
1 42871U 17042AY  21355.53584243  .00023833  00000-0  41977-3 0  9996
2 42871  96.8283 198.9042 0008758  96.5293 263.6957 15.50387053249342
1 42871U 17042AY  21356.56850954  .00027468  00000-0  48233-3 0  9995
2 42871  96.8284 199.8837 0008749  93.5030 266.7224 15.50447836249506
1 42871U 17042AY  21357.08482880  .00028243  00000-0  49549-3 0  9995
2 42871  96.8301 200.3743 0008217  90.1446 270.0753 15.50473786249580
1 42871U 17042AY  21357.53660220  .00022909  00000-0  40212-3 0  9992
2 42871  96.8286 200.8019 0008762  90.5838 269.6420 15.50490957249659
